OBJECT_NAME,OBJECT_ID,EPOCH,MEAN_MOTION,ECCENTRICITY,INCLINATION,RA_OF_ASC_NODE,ARG_OF_PERICENTER,MEAN_ANOMALY,EPHEMERIS_TYPE,CLASSIFICATION_TYPE,NORAD_CAT_ID,ELEMENT_SET_NO,REV_AT_EPOCH,BSTAR,MEAN_MOTION_DOT,MEAN_MOTION_DDOT
LEMUR-2-ALISIA,2025-009DB,2026-06-14T11:19:56.834112,15.02737684,.0001653,97.6966,247.6604,190.1389,169.9803,0,U,62706,999,9975,.56875E-3,.7543E-4,0
LEMUR-2-ROUNDTRIPPER,2025-009DG,2026-06-14T03:58:58.294272,15.03748203,.00050183,97.7260,247.8490,140.0023,220.1573,0,U,62711,999,7717,.67513638E-3,.9213E-4,0
LEMUR-2-MYNAMEISJEFF,2025-009DH,2026-06-14T05:32:31.343712,15.03758435,.0003239,97.7307,248.2932,161.8675,198.2666,0,U,62712,999,7718,.62081E-3,.8467E-4,0
LEMUR-2-LEIA-PHILIP,2025-052AN,2026-06-14T06:18:37.365408,14.97313853,.0002271,97.6846,57.2632,219.4333,140.6724,0,U,63246,999,6823,.12755E-3,.1422E-4,0
LEMUR-2-LIA-MARTIN,2025-052AQ,2026-06-14T06:27:14.809824,14.97786433,.0002725,97.6913,57.7401,159.6920,200.4411,0,U,63248,999,6824,.35108E-3,.4065E-4,0
LEMUR-2-DELOITTE-1,2025-052BB,2026-06-14T10:41:19.641408,14.97584087,.0003212,97.6924,58.2422,102.8935,257.2646,0,U,63259,999,6828,.36999E-3,.4265E-4,0
LEMUR-2-EMERSONROSE,2025-052BD,2026-06-14T05:21:06.160608,14.99062117,.0001903,97.6898,58.5769,66.5218,293.6205,0,U,63261,999,6829,.3039E-3,.363E-4,0
LEMUR-2-MARACHE-FRAN,2025-052BE,2026-06-14T12:48:44.881056,15.00079413,.0005647,97.6954,59.1939,32.3773,327.7796,0,U,63262,999,6836,.43843E-3,.5407E-4,0
LEMUR-2-THEFALCONER,2025-052BG,2026-06-14T06:30:04.000032,14.97374809,.0003043,97.6881,57.6946,42.2450,317.9006,0,U,63264,999,6825,.26157E-3,.2981E-4,0
LEMUR-2-UNTITLED-SC,2025-061A,2026-06-14T10:39:29.179008,15.13458721,.0016901,97.5630,140.8258,275.1315,84.7987,0,U,63351,999,6717,.21327E-3,.3759E-4,0
LEMUR-2-ESPERANZA,2025-061B,2026-06-14T11:42:00.512352,15.13551781,.0016551,97.5637,140.9616,274.2140,85.7200,0,U,63352,999,6718,.24872E-3,.4406E-4,0
LEMUR-2-KREMPEL-BRO2,2025-061C,2026-06-14T10:46:47.843040,15.13988701,.0017407,97.5685,141.4536,266.0853,93.8388,0,U,63353,999,6719,.21312E-3,.3814E-4,0
LEMUR-2-THERMORAPTOR,2025-061D,2026-06-14T11:56:21.043392,15.14066945,.001716,97.5689,141.5767,264.7140,95.2133,0,U,63354,999,6720,.2303E-3,.4135E-4,0
LEMUR-2-NEUROSPICY,2025-061E,2026-06-14T11:15:51.448608,15.14183265,.0014995,97.5618,141.1770,268.7209,91.2304,0,U,63355,999,6720,.25191E-3,.4541E-4,0
LEMUR-2-TILLINFINITY,2025-061F,2026-06-14T12:08:08.668032,15.14767536,.0016223,97.5600,141.5016,255.2763,104.6671,0,U,63356,999,6723,.20421E-3,.3731E-4,0
LEMUR-2-KREMPEL-BRO1,2025-061G,2026-06-14T13:04:35.174784,15.14574469,.0016929,97.5604,141.4575,256.6854,103.2491,0,U,63357,999,6723,.25285E-3,.4613E-4,0
LEMUR-2-LANGER2SPACE,2025-061H,2026-06-14T10:31:40.804608,15.14270023,.001485,97.5607,141.1669,267.0449,92.9083,0,U,63358,999,6720,.21495E-3,.3874E-4,0
LEMUR-2-BALTO,2025-052BH,2026-06-14T10:50:35.914848,15.00060391,.0006892,97.6898,59.0928,65.0451,295.1488,0,U,63395,999,6835,.47165E-3,.582E-4,0
LEMUR-2-KRISH,2025-135AK,2026-06-14T06:22:18.559776,14.96182335,.0001693,97.7741,280.1615,103.3321,256.8089,0,U,64561,999,5348,.49568E-3,.5529E-4,0
LEMUR-2-HUBBLE-4,2025-135AP,2026-06-14T07:43:30.228960,14.93189780,.0001118,97.7696,279.2627,326.8865,33.2285,0,U,64565,999,5344,.15499E-3,.1562E-4,0
LEMUR-2-SEJONG-2,2025-135BL,2026-06-14T13:31:56.366112,14.96679943,.0004064,97.7690,280.6027,350.8668,9.2479,0,U,64586,999,5355,.32179E-3,.3615E-4,0
LEMUR-2-HUBBLE-5,2025-135BT,2026-06-14T06:39:57.251808,14.94128888,.0005326,97.7715,279.8482,4.5787,355.5481,0,U,64840,999,5347,.15113E-3,.1559E-4,0
LEMUR-2-KARENDARRELL,2025-135BU,2026-06-14T07:35:54.609792,15.00074352,.0009472,97.7678,281.5293,213.2214,146.8416,0,U,64841,999,5358,.61327E-3,.7591E-4,0
LEMUR-2-LUCILLE-ROSE,2025-135BV,2026-06-14T13:22:23.631744,15.00126663,.0010957,97.7771,281.7858,292.9349,67.0717,0,U,65403,999,4824,.51465E-3,.637E-4,0
LEMUR-2-AFFIE-WAUWIE,2025-248C,2026-06-14T04:15:25.073856,15.27058848,.00077441,45.3886,131.2928,63.5131,296.6551,0,U,66295,999,3413,.57239362E-3,.15219E-3,0
LEMUR-2-DEANANDMAEVE,2025-276N,2026-06-14T11:36:06.014880,15.19704262,.0005988,97.4218,239.0035,23.7664,336.3846,0,U,66678,999,3000,.32685E-3,.6916E-4,0
LEMUR-2-STAS-GORBUK,2025-276W,2026-06-14T04:01:54.128640,15.19352529,.00053916,97.4254,238.7486,25.4705,334.6795,0,U,66686,999,2995,.27525118E-3,.5753E-4,0
LEMUR-2-TEODOR,2025-276DG,2026-06-14T03:43:18.714144,15.21021305,.00020577,97.4157,238.9683,118.6510,241.4933,0,U,66768,999,2998,.2967368E-3,.6517E-4,0
LEMUR-2-LAILA,2025-276DQ,2026-06-14T10:59:58.964640,15.21245498,.0002057,97.4180,239.3859,139.5835,220.5554,0,U,66776,999,3003,.24977E-3,.551E-4,0
LEMUR-2-CELIJO-SB-PK,2025-276DW,2026-06-14T10:26:13.187040,14.99952426,.0008979,97.5269,236.3017,139.4950,220.6944,0,U,66781,999,2221,.59531E-3,.7346E-4,0
